[{"OBJECT_NAME":"FLOCK 4Q-11","OBJECT_ID":"2023-174T","EPOCH":"2026-04-27T05:28:54.583392","MEAN_MOTION":15.47527595,"ECCENTRICITY":0.00048801,"INCLINATION":97.3867,"RA_OF_ASC_NODE":204.7864,"ARG_OF_PERICENTER":355.1685,"MEAN_ANOMALY":4.9517,"EPHEMERIS_TYPE":0,"CLASSIFICATION_TYPE":"U","NORAD_CAT_ID":58273,"ELEMENT_SET_NO":999,"REV_AT_EPOCH":13770,"BSTAR":0.0005460826,"MEAN_MOTION_DOT":0.00028055,"MEAN_MOTION_DDOT":0},{"OBJECT_NAME":"FLOCK 4Q-36","OBJECT_ID":"2023-174U","EPOCH":"2026-04-27T04:48:30.014496","MEAN_MOTION":15.54388229,"ECCENTRICITY":0.00051618,"INCLINATION":97.3846,"RA_OF_ASC_NODE":207.8762,"ARG_OF_PERICENTER":323.7417,"MEAN_ANOMALY":36.3487,"EPHEMERIS_TYPE":0,"CLASSIFICATION_TYPE":"U","NORAD_CAT_ID":58274,"ELEMENT_SET_NO":999,"REV_AT_EPOCH":13790,"BSTAR":0.00065026388,"MEAN_MOTION_DOT":0.00042718,"MEAN_MOTION_DDOT":0},{"OBJECT_NAME":"FLOCK 4Q-28","OBJECT_ID":"2023-174AA","EPOCH":"2026-04-27T05:22:56.310240","MEAN_MOTION":15.51979813,"ECCENTRICITY":0.00038366,"INCLINATION":97.3882,"RA_OF_ASC_NODE":206.8722,"ARG_OF_PERICENTER":334.4878,"MEAN_ANOMALY":25.6185,"EPHEMERIS_TYPE":0,"CLASSIFICATION_TYPE":"U","NORAD_CAT_ID":58280,"ELEMENT_SET_NO":999,"REV_AT_EPOCH":13783,"BSTAR":0.00058701396,"MEAN_MOTION_DOT":0.00035304,"MEAN_MOTION_DDOT":0},{"OBJECT_NAME":"FLOCK 4Q-27","OBJECT_ID":"2023-174AC","EPOCH":"2026-04-27T05:20:12.326496","MEAN_MOTION":15.51871142,"ECCENTRICITY":0.0003635,"INCLINATION":97.3814,"RA_OF_ASC_NODE":206.362,"ARG_OF_PERICENTER":334.5861,"MEAN_ANOMALY":25.5212,"EPHEMERIS_TYPE":0,"CLASSIFICATION_TYPE":"U","NORAD_CAT_ID":58282,"ELEMENT_SET_NO":999,"REV_AT_EPOCH":13784,"BSTAR":0.0005822861,"MEAN_MOTION_DOT":0.0003488,"MEAN_MOTION_DDOT":0},{"OBJECT_NAME":"FLOCK 4Q-26","OBJECT_ID":"2023-174AE","EPOCH":"2026-04-27T04:47:17.683008","MEAN_MOTION":15.54031731,"ECCENTRICITY":0.00047147,"INCLINATION":97.3872,"RA_OF_ASC_NODE":207.9562,"ARG_OF_PERICENTER":336.1189,"MEAN_ANOMALY":23.9846,"EPHEMERIS_TYPE":0,"CLASSIFICATION_TYPE":"U","NORAD_CAT_ID":58284,"ELEMENT_SET_NO":999,"REV_AT_EPOCH":13790,"BSTAR":0.00060817099,"MEAN_MOTION_DOT":0.00039412,"MEAN_MOTION_DDOT":0},{"OBJECT_NAME":"FLOCK 4Q-31","OBJECT_ID":"2023-174AF","EPOCH":"2026-04-27T05:41:35.598048","MEAN_MOTION":15.54019263,"ECCENTRICITY":0.00044725,"INCLINATION":97.3909,"RA_OF_ASC_NODE":207.6472,"ARG_OF_PERICENTER":333.9341,"MEAN_ANOMALY":26.1686,"EPHEMERIS_TYPE":0,"CLASSIFICATION_TYPE":"U","NORAD_CAT_ID":58285,"ELEMENT_SET_NO":999,"REV_AT_EPOCH":13786,"BSTAR":0.0006924201,"MEAN_MOTION_DOT":0.00044894,"MEAN_MOTION_DDOT":0},{"OBJECT_NAME":"FLOCK 4Q-30","OBJECT_ID":"2023-174AG","EPOCH":"2026-04-27T05:14:58.264224","MEAN_MOTION":15.54207447,"ECCENTRICITY":0.00030959,"INCLINATION":97.3926,"RA_OF_ASC_NODE":207.8383,"ARG_OF_PERICENTER":332.8184,"MEAN_ANOMALY":27.2907,"EPHEMERIS_TYPE":0,"CLASSIFICATION_TYPE":"U","NORAD_CAT_ID":58286,"ELEMENT_SET_NO":999,"REV_AT_EPOCH":13787,"BSTAR":0.00064607806,"MEAN_MOTION_DOT":0.00042146,"MEAN_MOTION_DDOT":0},{"OBJECT_NAME":"PELICAN-1","OBJECT_ID":"2023-174AS","EPOCH":"2026-04-27T05:16:11.044992","MEAN_MOTION":15.71218952,"ECCENTRICITY":0.0003254,"INCLINATION":97.4018,"RA_OF_ASC_NODE":214.4207,"ARG_OF_PERICENTER":152.5751,"MEAN_ANOMALY":207.5684,"EPHEMERIS_TYPE":0,"CLASSIFICATION_TYPE":"U","NORAD_CAT_ID":58296,"ELEMENT_SET_NO":999,"REV_AT_EPOCH":13815,"BSTAR":0.0015842041,"MEAN_MOTION_DOT":0.0020443,"MEAN_MOTION_DDOT":0},{"OBJECT_NAME":"FLOCK 4Q-29","OBJECT_ID":"2023-174BA","EPOCH":"2026-04-27T05:24:07.891776","MEAN_MOTION":15.52635823,"ECCENTRICITY":0.00040068,"INCLINATION":97.3925,"RA_OF_ASC_NODE":207.331,"ARG_OF_PERICENTER":321.4846,"MEAN_ANOMALY":38.612,"EPHEMERIS_TYPE":0,"CLASSIFICATION_TYPE":"U","NORAD_CAT_ID":58304,"ELEMENT_SET_NO":999,"REV_AT_EPOCH":13784,"BSTAR":0.00057111653,"MEAN_MOTION_DOT":0.00035163,"MEAN_MOTION_DDOT":0},{"OBJECT_NAME":"FLOCK 4Q-22","OBJECT_ID":"2023-174BC","EPOCH":"2026-04-27T05:19:03.172800","MEAN_MOTION":15.55900534,"ECCENTRICITY":0.00030252,"INCLINATION":97.3813,"RA_OF_ASC_NODE":207.6635,"ARG_OF_PERICENTER":317.2244,"MEAN_ANOMALY":42.8775,"EPHEMERIS_TYPE":0,"CLASSIFICATION_TYPE":"U","NORAD_CAT_ID":58306,"ELEMENT_SET_NO":999,"REV_AT_EPOCH":13793,"BSTAR":0.00064388863,"MEAN_MOTION_DOT":0.000447,"MEAN_MOTION_DDOT":0},{"OBJECT_NAME":"FLOCK 4Q-33","OBJECT_ID":"2023-174BE","EPOCH":"2026-04-27T05:50:02.293440","MEAN_MOTION":15.54552175,"ECCENTRICITY":0.00041209,"INCLINATION":97.385,"RA_OF_ASC_NODE":207.5617,"ARG_OF_PERICENTER":314.4705,"MEAN_ANOMALY":45.6212,"EPHEMERIS_TYPE":0,"CLASSIFICATION_TYPE":"U","NORAD_CAT_ID":58308,"ELEMENT_SET_NO":999,"REV_AT_EPOCH":13791,"BSTAR":0.00059620905,"MEAN_MOTION_DOT":0.00039369,"MEAN_MOTION_DDOT":0},{"OBJECT_NAME":"FLOCK 4Q-35","OBJECT_ID":"2023-174BF","EPOCH":"2026-04-27T04:46:30.459360","MEAN_MOTION":15.53506732,"ECCENTRICITY":0.0004094,"INCLINATION":97.3872,"RA_OF_ASC_NODE":207.616,"ARG_OF_PERICENTER":330.9086,"MEAN_ANOMALY":29.1939,"EPHEMERIS_TYPE":0,"CLASSIFICATION_TYPE":"U","NORAD_CAT_ID":58309,"ELEMENT_SET_NO":999,"REV_AT_EPOCH":13788,"BSTAR":0.00060946494,"MEAN_MOTION_DOT":0.00038744,"MEAN_MOTION_DDOT":0},{"OBJECT_NAME":"FLOCK 4Q-7","OBJECT_ID":"2023-174BQ","EPOCH":"2026-04-27T04:52:06.566592","MEAN_MOTION":15.52386233,"ECCENTRICITY":0.00048739,"INCLINATION":97.3907,"RA_OF_ASC_NODE":207.0884,"ARG_OF_PERICENTER":318.6295,"MEAN_ANOMALY":41.4588,"EPHEMERIS_TYPE":0,"CLASSIFICATION_TYPE":"U","NORAD_CAT_ID":58318,"ELEMENT_SET_NO":999,"REV_AT_EPOCH":13783,"BSTAR":0.00061993094,"MEAN_MOTION_DOT":0.00037854,"MEAN_MOTION_DDOT":0},{"OBJECT_NAME":"FLOCK 4Q-2","OBJECT_ID":"2023-174BS","EPOCH":"2026-04-27T06:36:17.432064","MEAN_MOTION":15.47414242,"ECCENTRICITY":0.00045043,"INCLINATION":97.383,"RA_OF_ASC_NODE":204.5971,"ARG_OF_PERICENTER":326.0458,"MEAN_ANOMALY":34.0503,"EPHEMERIS_TYPE":0,"CLASSIFICATION_TYPE":"U","NORAD_CAT_ID":58320,"ELEMENT_SET_NO":999,"REV_AT_EPOCH":13772,"BSTAR":0.00051816912,"MEAN_MOTION_DOT":0.00026505,"MEAN_MOTION_DDOT":0},{"OBJECT_NAME":"FLOCK 4Q-9","OBJECT_ID":"2023-174BU","EPOCH":"2026-04-27T07:15:24.982272","MEAN_MOTION":15.47308267,"ECCENTRICITY":0.00046033,"INCLINATION":97.3866,"RA_OF_ASC_NODE":204.6732,"ARG_OF_PERICENTER":325.8629,"MEAN_ANOMALY":34.2325,"EPHEMERIS_TYPE":0,"CLASSIFICATION_TYPE":"U","NORAD_CAT_ID":58322,"ELEMENT_SET_NO":999,"REV_AT_EPOCH":13771,"BSTAR":0.00060187554,"MEAN_MOTION_DOT":0.00030705,"MEAN_MOTION_DDOT":0},{"OBJECT_NAME":"FLOCK 4Q-4","OBJECT_ID":"2023-174BZ","EPOCH":"2026-04-27T04:37:36.921216","MEAN_MOTION":15.46519147,"ECCENTRICITY":0.00048349,"INCLINATION":97.3821,"RA_OF_ASC_NODE":203.8635,"ARG_OF_PERICENTER":358.8489,"MEAN_ANOMALY":1.2748,"EPHEMERIS_TYPE":0,"CLASSIFICATION_TYPE":"U","NORAD_CAT_ID":58327,"ELEMENT_SET_NO":999,"REV_AT_EPOCH":13767,"BSTAR":0.00053159159,"MEAN_MOTION_DOT":0.00026368,"MEAN_MOTION_DDOT":0}]
