FLOCK 4Q-11             
1 58273U 23174T   26117.22840953  .00028055  00000+0  54608-3 0  9997
2 58273  97.3867 204.7864 0004880 355.1685   4.9517 15.47527595137705
FLOCK 4Q-36             
1 58274U 23174U   26117.20034739  .00042718  00000+0  65026-3 0  9991
2 58274  97.3846 207.8762 0005161 323.7417  36.3487 15.54388229137905
FLOCK 4Q-28             
1 58280U 23174AA  26117.22426285  .00035304  00000+0  58701-3 0  9996
2 58280  97.3882 206.8722 0003836 334.4878  25.6185 15.51979813137834
FLOCK 4Q-27             
1 58282U 23174AC  26117.22236489  .00034880  00000+0  58229-3 0  9996
2 58282  97.3814 206.3620 0003635 334.5861  25.5212 15.51871142137840
FLOCK 4Q-26             
1 58284U 23174AE  26117.19951022  .00039412  00000+0  60817-3 0  9993
2 58284  97.3872 207.9562 0004714 336.1189  23.9846 15.54031731137905
FLOCK 4Q-31             
1 58285U 23174AF  26117.23721757  .00044894  00000+0  69242-3 0  9990
2 58285  97.3909 207.6472 0004472 333.9341  26.1686 15.54019263137868
FLOCK 4Q-30             
1 58286U 23174AG  26117.21872991  .00042146  00000+0  64608-3 0  9995
2 58286  97.3926 207.8383 0003095 332.8184  27.2907 15.54207447137876
PELICAN-1               
1 58296U 23174AS  26117.21957228  .00204430  00000+0  15842-2 0  9994
2 58296  97.4018 214.4207 0003254 152.5751 207.5684 15.71218952138152
FLOCK 4Q-29             
1 58304U 23174BA  26117.22509134  .00035163  00000+0  57112-3 0  9996
2 58304  97.3925 207.3310 0004006 321.4846  38.6120 15.52635823137844
FLOCK 4Q-22             
1 58306U 23174BC  26117.22156450  .00044700  00000+0  64389-3 0  9998
2 58306  97.3813 207.6635 0003025 317.2244  42.8775 15.55900534137930
FLOCK 4Q-33             
1 58308U 23174BE  26117.24308210  .00039369  00000+0  59621-3 0  9993
2 58308  97.3850 207.5617 0004120 314.4705  45.6212 15.54552175137918
FLOCK 4Q-35             
1 58309U 23174BF  26117.19896365  .00038744  00000+0  60946-3 0  9999
2 58309  97.3872 207.6160 0004094 330.9086  29.1939 15.53506732137888
FLOCK 4Q-7              
1 58318U 23174BQ  26117.20285378  .00037854  00000+0  61993-3 0  9991
2 58318  97.3907 207.0884 0004873 318.6295  41.4588 15.52386233137837
FLOCK 4Q-2              
1 58320U 23174BS  26117.27520176  .00026505  00000+0  51817-3 0  9994
2 58320  97.3830 204.5971 0004504 326.0458  34.0503 15.47414242137728
FLOCK 4Q-9              
1 58322U 23174BU  26117.30237248  .00030705  00000+0  60188-3 0  9993
2 58322  97.3866 204.6732 0004603 325.8629  34.2325 15.47308267137714
FLOCK 4Q-4              
1 58327U 23174BZ  26117.19278844  .00026368  00000+0  53159-3 0  9992
2 58327  97.3821 203.8635 0004834 358.8489   1.2748 15.46519147137677
